H1 CPF 01  gfz 2021 01 18 01  5181 terrasarx 
H2 0702601  6201 31698    2021 01 18 00 59 42 2021 01 23 00 00 42   120 1 1  0 0 0
H9
10 0 59235  42462.000000  0    -979611.922   3212576.184  -6021316.725
10 0 59235  42582.000000  0    -927991.108   3995013.261  -5541875.666
10 0 59235  42702.000000  0    -847182.702   4706939.599  -4965545.123
10 0 59235  42822.000000  0    -739921.875   5335426.955  -4302315.139
10 0 59235  42942.000000  0    -609619.628   5869022.827  -3563713.907
10 0 59235  43062.000000  0    -460278.084   6297968.757  -2762615.235
10 0 59235  43182.000000  0    -296391.010   6614390.680  -1913019.765
10 0 59235  43302.000000  0    -122831.997   6812456.173  -1029811.739
10 0 59235  43422.000000  0      55267.648   6888493.597   -128496.137
10 0 59235  43542.000000  0     232648.515   6841069.694    775078.907
10 0 59235  43662.000000  0     404056.674   6671022.724   1665009.225
10 0 59235  43782.000000  0     564376.825   6381448.402   2525624.129
10 0 59235  43902.000000  0     708761.363   5977640.052   3341769.738
10 0 59235  44022.000000  0     832753.350   5466986.603   4099082.043
10 0 59235  44142.000000  0     932401.972   4858831.513   4784244.951
10 0 59235  44262.000000  0    1004362.634   4164288.190   5385229.121
10 0 59235  44382.000000  0    1045983.853   3396025.958   5891497.493
10 0 59235  44502.000000  0    1055378.305   2568031.698   6294185.866
10 0 59235  44622.000000  0    1031474.734   1695348.645   6586252.766
10 0 59235  44742.000000  0     974051.495    793798.576   6762596.705
10 0 59235  44862.000000  0     883750.891   -120306.752   6820138.801
10 0 59235  44982.000000  0     762073.925  -1030459.197   6757873.755
10 0 59235  45102.000000  0     611355.255  -1920252.324   6576887.397
10 0 59235  45222.000000  0     434718.659  -2773676.874   6280339.290
10 0 59235  45342.000000  0     236013.818  -3575410.675   5873410.586
10 0 59235  45462.000000  0      19736.070  -4311094.630   5363216.132
10 0 59235  45582.000000  0    -209069.227  -4967592.109   4758687.020
10 0 59235  45702.000000  0    -444916.844  -5533231.119   4070422.633
10 0 59235  45822.000000  0    -682005.602  -5998022.780   3310508.711
10 0 59235  45942.000000  0    -914352.537  -6353847.444   2492306.137
10 0 59235  46062.000000  0   -1135932.800  -6594605.820   1630214.680
10 0 59235  46182.000000  0   -1340823.616  -6716332.959    739416.384
10 0 59235  46302.000000  0   -1523349.519  -6717269.206   -164400.214
10 0 59235  46422.000000  0   -1678221.804  -6597885.142  -1065325.548
10 0 59235  46542.000000  0   -1800670.330  -6360861.961  -1947517.699
10 0 59235  46662.000000  0   -1886564.757  -6011028.128  -2795488.456
10 0 59235  46782.000000  0   -1932522.278  -5555253.577  -3594381.301
10 0 59235  46902.000000  0   -1935998.670  -5002303.734  -4330234.529
10 0 59235  47022.000000  0   -1895360.440  -4362658.840  -4990223.281
10 0 59235  47142.000000  0   -1809937.246  -3648304.770  -5562877.071
10 0 59235  47262.000000  0   -1680053.797  -2872500.335  -6038270.840
10 0 59235  47382.000000  0   -1507040.504  -2049525.288  -6408187.254
10 0 59235  47502.000000  0   -1293222.987  -1194414.480  -6666247.055
10 0 59235  47622.000000  0   -1041891.741   -322684.515  -6808007.928
10 0 59235  47742.000000  0    -757252.179    549943.502  -6831032.316
10 0 59235  47862.000000  0    -444354.732   1407820.489  -6734924.231
10 0 59235  47982.000000  0    -109007.646   2235642.648  -6521335.070
10 0 59235  48102.000000  0     242326.770   3018717.910  -6193939.650
10 0 59235  48222.000000  0     602653.352   3743223.946  -5758381.001
10 0 59235  48342.000000  0     964579.116   4396451.214  -5222181.722
10 0 59235  48462.000000  0    1320459.816   4967028.376  -4594625.854
10 0 59235  48582.000000  0    1662556.956   5445127.511  -3886609.226
10 0 59235  48702.000000  0    1983201.638   5822642.352  -3110458.975
10 0 59235  48822.000000  0    2274961.653   6093336.631  -2279725.989
10 0 59235  48942.000000  0    2530808.720   6252959.255  -1408951.553
10 0 59235  49062.000000  0    2744281.293   6299321.585   -513411.326
10 0 59235  49182.000000  0    2909638.480   6232333.250    391157.721
10 0 59235  49302.000000  0    3022001.010   6053995.666   1288840.522
10 0 59235  49422.000000  0    3077475.763   5768354.407   2163831.665
10 0 59235  49542.000000  0    3073260.548   5381410.515   3000722.077
10 0 59235  49662.000000  0    3007726.749   4900992.557   3784778.121
10 0 59235  49782.000000  0    2880478.112   4336593.601   4502206.823
10 0 59235  49902.000000  0    2692381.531   3699175.831   5140403.607
10 0 59235  50022.000000  0    2445570.143   3000947.712   5688171.973
10 0 59235  50142.000000  0    2143422.860   2255123.795   6135914.883
10 0 59235  50262.000000  0    1790518.555   1475669.871   6475798.922
10 0 59235  50382.000000  0    1392564.620    677036.704   6701885.406
10 0 59235  50502.000000  0     956302.765   -126108.936   6810226.744
10 0 59235  50622.000000  0     489394.378   -919152.129   6798931.957
10 0 59235  50742.000000  0        285.737  -1687796.094   6668198.589
10 0 59235  50862.000000  0    -501944.929  -2418319.708   6420309.068
10 0 59235  50982.000000  0   -1007755.522  -3097822.949   6059592.361
10 0 59235  51102.000000  0   -1507318.775  -3714455.060   5592351.377
10 0 59235  51222.000000  0   -1990711.079  -4257623.516   5026760.339
10 0 59235  51342.000000  0   -2448110.353  -4718182.027   4372729.993
10 0 59235  51462.000000  0   -2869997.994  -5088592.706   3641739.301
10 0 59235  51582.000000  0   -3247358.563  -5363057.318   2846635.289
10 0 59235  51702.000000  0   -3571872.295  -5537613.669   2001406.412
10 0 59235  51822.000000  0   -3836097.445  -5610196.804   1120933.775
10 0 59235  51942.000000  0   -4033638.011  -5580662.347    220723.475
10 0 59235  52062.000000  0   -4159292.081  -5450771.110   -683373.944
10 0 59235  52182.000000  0   -4209176.959  -5224135.242  -1575451.868
10 0 59235  52302.000000  0   -4180827.109  -4906125.994  -2439836.806
10 0 59235  52422.000000  0   -4073262.683  -4503746.195  -3261370.889
10 0 59235  52542.000000  0   -3887027.073  -4025471.892  -4025681.316
10 0 59235  52662.000000  0   -3624193.569  -3481068.250  -4719431.416
10 0 59235  52782.000000  0   -3288341.900  -2881384.457  -5330549.668
10 0 59235  52902.000000  0   -2884505.345  -2238132.254  -5848432.380
10 0 59235  53022.000000  0   -2419090.770  -1563654.284  -6264117.973
10 0 59235  53142.000000  0   -1899772.549   -870686.018  -6570431.715
10 0 59235  53262.000000  0   -1335362.831   -172116.340  -6762097.609
10 0 59235  53382.000000  0    -735662.504    519247.858  -6835818.153
10 0 59235  53502.000000  0    -111294.029   1190910.328  -6790325.110
10 0 59235  53622.000000  0     526481.983   1830905.432  -6626398.594
10 0 59235  53742.000000  0    1165964.118   2428006.084  -6346857.335
10 0 59235  53862.000000  0    1795221.090   2971918.170  -5956515.814
10 0 59235  53982.000000  0    2402309.999   3453457.565  -5462109.507
10 0 59235  54102.000000  0    2975500.199   3864706.104  -4872188.936
10 0 59235  54222.000000  0    3503498.967   4199146.209  -4196983.759
10 0 59235  54342.000000  0    3975675.761   4451770.723  -3448235.842
10 0 59235  54462.000000  0    4382280.053   4619164.596  -2639002.767
10 0 59235  54582.000000  0    4714646.496   4699555.492  -1783433.911
10 0 59235  54702.000000  0    4965383.756   4692833.016   -896524.629
10 0 59235  54822.000000  0    5128541.438   4600533.902      6150.369
10 0 59235  54942.000000  0    5199748.394   4425793.917    908716.226
10 0 59235  55062.000000  0    5176321.797   4173268.269   1795283.894
10 0 59235  55182.000000  0    5057344.156   3849020.869   2650238.772
10 0 59235  55302.000000  0    4843702.861   3460384.261   3458525.246
10 0 59235  55422.000000  0    4538091.867   3015795.304   4205918.626
10 0 59235  55542.000000  0    4144977.414   2524610.590   4879278.928
10 0 59235  55662.000000  0    3670529.418   1996907.647   5466783.238
10 0 59235  55782.000000  0    3122516.360   1443275.610   5958132.052
10 0 59235  55902.000000  0    2510171.528    874599.776   6344724.432
10 0 59235  56022.000000  0    1844032.336    301846.191   6619800.994
10 0 59235  56142.000000  0    1135756.247   -264148.379   6778556.508
10 0 59235  56262.000000  0     397914.613   -812881.012   6818220.536
10 0 59235  56382.000000  0    -356231.509  -1334377.520   6738101.988
10 0 59235  56502.000000  0   -1112969.510  -1819373.302   6539599.826
10 0 59235  56622.000000  0   -1858383.538  -2259477.886   6226178.640
10 0 59235  56742.000000  0   -2578607.819  -2647319.520   5803312.013
10 0 59235  56862.000000  0   -3260084.901  -2976670.851   5278395.673
10 0 59235  56982.000000  0   -3889825.961  -3242552.680   4660624.354
10 0 59235  57102.000000  0   -4455662.904  -3441311.497   3960834.392
10 0 59235  57222.000000  0   -4946488.662  -3570670.285   3191317.111
10 0 59235  57342.000000  0   -5352481.361  -3629751.833   2365605.227
10 0 59235  57462.000000  0   -5665308.198  -3619074.455   1498233.678
10 0 59235  57582.000000  0   -5878301.561  -3540518.174    604478.286
10 0 59235  57702.000000  0   -5986603.236  -3397262.000   -299920.354
10 0 59235  57822.000000  0   -5987273.441  -3193694.957  -1199042.786
10 0 59235  57942.000000  0   -5879360.570  -2935301.809  -2077081.224
10 0 59235  58062.000000  0   -5663928.991  -2628526.667  -2918625.170
10 0 59235  58182.000000  0   -5344047.233  -2280619.656  -3708936.485
10 0 59235  58302.000000  0   -4924736.365  -1899469.954  -4434208.991
10 0 59235  58422.000000  0   -4412881.301  -1493429.955  -5081807.399
10 0 59235  58542.000000  0   -3817107.151  -1071134.511  -5640482.306
10 0 59235  58662.000000  0   -3147623.809   -641319.289  -6100556.626
10 0 59235  58782.000000  0   -2416043.852   -212642.820  -6454081.953
10 0 59235  58902.000000  0   -1635177.015    206484.138  -6694964.395
99
